[{"OBJECT_NAME":"ONEWEB-0033","OBJECT_ID":"2020-008M","EPOCH":"2026-06-10T04:20:10.089312","MEAN_MOTION":13.10373805,"ECCENTRICITY":0.0001455,"INCLINATION":87.8838,"RA_OF_ASC_NODE":37.6734,"ARG_OF_PERICENTER":94.381,"MEAN_ANOMALY":265.7483,"EPHEMERIS_TYPE":0,"CLASSIFICATION_TYPE":"U","NORAD_CAT_ID":45142,"ELEMENT_SET_NO":999,"REV_AT_EPOCH":30729,"BSTAR":0.0018774,"MEAN_MOTION_DOT":6.68e-06,"MEAN_MOTION_DDOT":0.0},{"OBJECT_NAME":"ONEWEB-0035","OBJECT_ID":"2020-008N","EPOCH":"2026-06-10T02:59:05.866944","MEAN_MOTION":13.10370354,"ECCENTRICITY":0.0001723,"INCLINATION":87.8834,"RA_OF_ASC_NODE":37.6773,"ARG_OF_PERICENTER":84.0458,"MEAN_ANOMALY":276.0866,"EPHEMERIS_TYPE":0,"CLASSIFICATION_TYPE":"U","NORAD_CAT_ID":45143,"ELEMENT_SET_NO":999,"REV_AT_EPOCH":30701,"BSTAR":0.00042203000000000005,"MEAN_MOTION_DOT":1.6e-06,"MEAN_MOTION_DDOT":0.0},{"OBJECT_NAME":"ONEWEB-0036","OBJECT_ID":"2020-008P","EPOCH":"2026-06-10T04:10:13.862784","MEAN_MOTION":13.09981322,"ECCENTRICITY":0.0001984,"INCLINATION":87.8859,"RA_OF_ASC_NODE":37.677,"ARG_OF_PERICENTER":77.1855,"MEAN_ANOMALY":282.9494,"EPHEMERIS_TYPE":0,"CLASSIFICATION_TYPE":"U","NORAD_CAT_ID":45144,"ELEMENT_SET_NO":999,"REV_AT_EPOCH":30744,"BSTAR":0.0040878,"MEAN_MOTION_DOT":1.432e-05,"MEAN_MOTION_DDOT":0.0},{"OBJECT_NAME":"ONEWEB-0038","OBJECT_ID":"2020-008Q","EPOCH":"2026-06-10T03:35:23.237664","MEAN_MOTION":13.11415723,"ECCENTRICITY":9.68e-05,"INCLINATION":87.8907,"RA_OF_ASC_NODE":22.4769,"ARG_OF_PERICENTER":16.1932,"MEAN_ANOMALY":343.9227,"EPHEMERIS_TYPE":0,"CLASSIFICATION_TYPE":"U","NORAD_CAT_ID":45145,"ELEMENT_SET_NO":999,"REV_AT_EPOCH":30940,"BSTAR":0.0013050999999999998,"MEAN_MOTION_DOT":4.75e-06,"MEAN_MOTION_DDOT":0.0},{"OBJECT_NAME":"ONEWEB-0039","OBJECT_ID":"2020-008R","EPOCH":"2026-06-10T00:45:02.421792","MEAN_MOTION":13.10372497,"ECCENTRICITY":0.0001982,"INCLINATION":87.8834,"RA_OF_ASC_NODE":37.6932,"ARG_OF_PERICENTER":67.3111,"MEAN_ANOMALY":292.8225,"EPHEMERIS_TYPE":0,"CLASSIFICATION_TYPE":"U","NORAD_CAT_ID":45146,"ELEMENT_SET_NO":999,"REV_AT_EPOCH":30722,"BSTAR":0.00067157,"MEAN_MOTION_DOT":2.47e-06,"MEAN_MOTION_DDOT":0.0},{"OBJECT_NAME":"ONEWEB-0040","OBJECT_ID":"2020-008S","EPOCH":"2026-06-10T04:15:23.296608","MEAN_MOTION":13.10374228,"ECCENTRICITY":0.0001745,"INCLINATION":87.8839,"RA_OF_ASC_NODE":37.6751,"ARG_OF_PERICENTER":77.5873,"MEAN_ANOMALY":282.5449,"EPHEMERIS_TYPE":0,"CLASSIFICATION_TYPE":"U","NORAD_CAT_ID":45147,"ELEMENT_SET_NO":999,"REV_AT_EPOCH":30694,"BSTAR":0.0016235,"MEAN_MOTION_DOT":5.79e-06,"MEAN_MOTION_DDOT":0.0},{"OBJECT_NAME":"ONEWEB-0043","OBJECT_ID":"2020-008U","EPOCH":"2026-06-10T04:17:47.000544","MEAN_MOTION":13.10374472,"ECCENTRICITY":0.0002171,"INCLINATION":87.8843,"RA_OF_ASC_NODE":37.662,"ARG_OF_PERICENTER":68.1947,"MEAN_ANOMALY":291.9411,"EPHEMERIS_TYPE":0,"CLASSIFICATION_TYPE":"U","NORAD_CAT_ID":45149,"ELEMENT_SET_NO":999,"REV_AT_EPOCH":30726,"BSTAR":0.0017921999999999999,"MEAN_MOTION_DOT":6.38e-06,"MEAN_MOTION_DDOT":0.0},{"OBJECT_NAME":"ONEWEB-0044","OBJECT_ID":"2020-008V","EPOCH":"2026-06-10T03:08:26.248704","MEAN_MOTION":13.10368967,"ECCENTRICITY":0.0001851,"INCLINATION":87.8844,"RA_OF_ASC_NODE":37.6718,"ARG_OF_PERICENTER":75.6867,"MEAN_ANOMALY":284.4466,"EPHEMERIS_TYPE":0,"CLASSIFICATION_TYPE":"U","NORAD_CAT_ID":45150,"ELEMENT_SET_NO":999,"REV_AT_EPOCH":30755,"BSTAR":-0.00046336,"MEAN_MOTION_DOT":-1.49e-06,"MEAN_MOTION_DDOT":0.0},{"OBJECT_NAME":"ONEWEB-0045","OBJECT_ID":"2020-008W","EPOCH":"2026-06-10T03:27:52.096608","MEAN_MOTION":13.11417127,"ECCENTRICITY":0.0001824,"INCLINATION":87.8901,"RA_OF_ASC_NODE":22.461,"ARG_OF_PERICENTER":80.3833,"MEAN_ANOMALY":279.7501,"EPHEMERIS_TYPE":0,"CLASSIFICATION_TYPE":"U","NORAD_CAT_ID":45151,"ELEMENT_SET_NO":999,"REV_AT_EPOCH":30948,"BSTAR":0.0014332000000000001,"MEAN_MOTION_DOT":5.21e-06,"MEAN_MOTION_DDOT":0.0},{"OBJECT_NAME":"ONEWEB-0047","OBJECT_ID":"2020-008X","EPOCH":"2026-06-10T02:58:41.535840","MEAN_MOTION":13.10369822,"ECCENTRICITY":0.00016,"INCLINATION":87.8843,"RA_OF_ASC_NODE":37.6727,"ARG_OF_PERICENTER":81.9744,"MEAN_ANOMALY":278.1565,"EPHEMERIS_TYPE":0,"CLASSIFICATION_TYPE":"U","NORAD_CAT_ID":45152,"ELEMENT_SET_NO":999,"REV_AT_EPOCH":30727,"BSTAR":0.00061091,"MEAN_MOTION_DOT":2.26e-06,"MEAN_MOTION_DDOT":0.0},{"OBJECT_NAME":"ONEWEB-0048","OBJECT_ID":"2020-008Y","EPOCH":"2026-06-10T02:51:43.262208","MEAN_MOTION":13.10370335,"ECCENTRICITY":0.0001737,"INCLINATION":87.8834,"RA_OF_ASC_NODE":37.6953,"ARG_OF_PERICENTER":81.6868,"MEAN_ANOMALY":278.4456,"EPHEMERIS_TYPE":0,"CLASSIFICATION_TYPE":"U","NORAD_CAT_ID":45153,"ELEMENT_SET_NO":999,"REV_AT_EPOCH":30688,"BSTAR":0.0012683,"MEAN_MOTION_DOT":4.55e-06,"MEAN_MOTION_DDOT":0.0},{"OBJECT_NAME":"ONEWEB-0049","OBJECT_ID":"2020-008Z","EPOCH":"2026-06-10T02:56:18.364128","MEAN_MOTION":13.10369461,"ECCENTRICITY":0.0002233,"INCLINATION":87.8838,"RA_OF_ASC_NODE":37.6841,"ARG_OF_PERICENTER":84.1182,"MEAN_ANOMALY":276.0199,"EPHEMERIS_TYPE":0,"CLASSIFICATION_TYPE":"U","NORAD_CAT_ID":45154,"ELEMENT_SET_NO":999,"REV_AT_EPOCH":30710,"BSTAR":0.0008038499999999999,"MEAN_MOTION_DOT":2.93e-06,"MEAN_MOTION_DDOT":0.0},{"OBJECT_NAME":"ONEWEB-0051","OBJECT_ID":"2020-008AA","EPOCH":"2026-06-10T03:25:26.357952","MEAN_MOTION":13.11417246,"ECCENTRICITY":0.0001852,"INCLINATION":87.8894,"RA_OF_ASC_NODE":22.4694,"ARG_OF_PERICENTER":83.7922,"MEAN_ANOMALY":276.3417,"EPHEMERIS_TYPE":0,"CLASSIFICATION_TYPE":"U","NORAD_CAT_ID":45155,"ELEMENT_SET_NO":999,"REV_AT_EPOCH":31016,"BSTAR":0.0014627000000000002,"MEAN_MOTION_DOT":5.31e-06,"MEAN_MOTION_DDOT":0.0},{"OBJECT_NAME":"ONEWEB-0052","OBJECT_ID":"2020-008AB","EPOCH":"2026-06-10T03:25:21.632736","MEAN_MOTION":13.10372537,"ECCENTRICITY":0.000228,"INCLINATION":87.884,"RA_OF_ASC_NODE":37.6656,"ARG_OF_PERICENTER":83.0501,"MEAN_ANOMALY":277.0885,"EPHEMERIS_TYPE":0,"CLASSIFICATION_TYPE":"U","NORAD_CAT_ID":45156,"ELEMENT_SET_NO":999,"REV_AT_EPOCH":30701,"BSTAR":-0.0014251,"MEAN_MOTION_DOT":-4.85e-06,"MEAN_MOTION_DDOT":0.0},{"OBJECT_NAME":"ONEWEB-0053","OBJECT_ID":"2020-008AC","EPOCH":"2026-06-10T04:13:00.017760","MEAN_MOTION":13.10374602,"ECCENTRICITY":0.0002244,"INCLINATION":87.884,"RA_OF_ASC_NODE":37.681,"ARG_OF_PERICENTER":73.1735,"MEAN_ANOMALY":286.9638,"EPHEMERIS_TYPE":0,"CLASSIFICATION_TYPE":"U","NORAD_CAT_ID":45157,"ELEMENT_SET_NO":999,"REV_AT_EPOCH":30699,"BSTAR":0.0015912,"MEAN_MOTION_DOT":5.68e-06,"MEAN_MOTION_DDOT":0.0},{"OBJECT_NAME":"ONEWEB-0054","OBJECT_ID":"2020-008AD","EPOCH":"2026-06-10T03:13:12.765792","MEAN_MOTION":13.10369595,"ECCENTRICITY":0.0001871,"INCLINATION":87.8847,"RA_OF_ASC_NODE":37.6714,"ARG_OF_PERICENTER":83.228,"MEAN_ANOMALY":276.906,"EPHEMERIS_TYPE":0,"CLASSIFICATION_TYPE":"U","NORAD_CAT_ID":45158,"ELEMENT_SET_NO":999,"REV_AT_EPOCH":30710,"BSTAR":-0.0010345,"MEAN_MOTION_DOT":-3.48e-06,"MEAN_MOTION_DDOT":0.0}]