ONEWEB-0033             
1 45142U 20008M   26161.18067233  .00000668  00000+0  18774-2 0  9990
2 45142  87.8838  37.6734 0001455  94.3810 265.7483 13.10373805307297
ONEWEB-0035             
1 45143U 20008N   26161.12437346  .00000160  00000+0  42203-3 0  9993
2 45143  87.8834  37.6773 0001723  84.0458 276.0866 13.10370354307015
ONEWEB-0036             
1 45144U 20008P   26161.17377156  .00001432  00000+0  40878-2 0  9999
2 45144  87.8859  37.6770 0001984  77.1855 282.9494 13.09981322307444
ONEWEB-0038             
1 45145U 20008Q   26161.14957451  .00000475  00000+0  13051-2 0  9998
2 45145  87.8907  22.4769 0000968  16.1932 343.9227 13.11415723309409
ONEWEB-0039             
1 45146U 20008R   26161.03127803  .00000247  00000+0  67157-3 0  9991
2 45146  87.8834  37.6932 0001982  67.3111 292.8225 13.10372497307220
ONEWEB-0040             
1 45147U 20008S   26161.17735297  .00000579  00000+0  16235-2 0  9997
2 45147  87.8839  37.6751 0001745  77.5873 282.5449 13.10374228306946
ONEWEB-0043             
1 45149U 20008U   26161.17901621  .00000638  00000+0  17922-2 0  9995
2 45149  87.8843  37.6620 0002171  68.1947 291.9411 13.10374472307260
ONEWEB-0044             
1 45150U 20008V   26161.13085936 -.00000149  00000+0 -46336-3 0  9996
2 45150  87.8844  37.6718 0001851  75.6867 284.4466 13.10368967307550
ONEWEB-0045             
1 45151U 20008W   26161.14435297  .00000521  00000+0  14332-2 0  9999
2 45151  87.8901  22.4610 0001824  80.3833 279.7501 13.11417127309489
ONEWEB-0047             
1 45152U 20008X   26161.12409185  .00000226  00000+0  61091-3 0  9992
2 45152  87.8843  37.6727 0001600  81.9744 278.1565 13.10369822307277
ONEWEB-0048             
1 45153U 20008Y   26161.11925072  .00000455  00000+0  12683-2 0  9996
2 45153  87.8834  37.6953 0001737  81.6868 278.4456 13.10370335306883
ONEWEB-0049             
1 45154U 20008Z   26161.12243477  .00000293  00000+0  80385-3 0  9995
2 45154  87.8838  37.6841 0002233  84.1182 276.0199 13.10369461307105
ONEWEB-0051             
1 45155U 20008AA  26161.14266618  .00000531  00000+0  14627-2 0  9990
2 45155  87.8894  22.4694 0001852  83.7922 276.3417 13.11417246310161
ONEWEB-0052             
1 45156U 20008AB  26161.14261149 -.00000485  00000+0 -14251-2 0  9998
2 45156  87.8840  37.6656 0002280  83.0501 277.0885 13.10372537307010
ONEWEB-0053             
1 45157U 20008AC  26161.17569465  .00000568  00000+0  15912-2 0  9999
2 45157  87.8840  37.6810 0002244  73.1735 286.9638 13.10374602306998
ONEWEB-0054             
1 45158U 20008AD  26161.13417553 -.00000348  00000+0 -10345-2 0  9999
2 45158  87.8847  37.6714 0001871  83.2280 276.9060 13.10369595307108
